{
  "type": "FeatureCollection",
  "features": [
    {
      "type": "Feature",
      "properties": {
        "norad_id": 31235,
        "name": "FENGYUN 1C DEB",
        "group": "fengyun-1c-debris",
        "lat": 33.98867605254508,
        "lon": -30.215143137073646,
        "alt_km": 940.3689794091924,
        "timestamp": "2025-12-22T04:03:39.450567+00:00",
        "meta_object_name": "FENGYUN 1C DEB",
        "meta_object_id": "1999-025BLR",
        "meta_epoch": "2025-12-21T15:31:59.523744",
        "meta_mean_motion": 14.18727874,
        "meta_eccentricity": 0.0179854,
        "meta_inclination": 98.4682,
        "meta_ra_of_asc_node": 143.5213,
        "meta_arg_of_pericenter": 355.9123,
        "meta_mean_anomaly": 4.0574,
        "meta_ephemeris_type": 0,
        "meta_classification_type": "U",
        "meta_norad_cat_id": 31235,
        "meta_element_set_no": 999,
        "meta_rev_at_epoch": 63293,
        "meta_bstar": 0.002371,
        "meta_mean_motion_dot": 5.742e-05,
        "meta_mean_motion_ddot": 0,
        "tle_line1": "1 31235U 99025BLR 25355.64721671  .00005742  00000+0  23710-2 0  9995",
        "tle_line2": "2 31235  98.4682 143.5213 0179854 355.9123   4.0574 14.18727874632936"
      },
      "geometry": {
        "type": "Point",
        "coordinates": [
          -30.215143137073646,
          33.98867605254508
        ]
      }
    },
    {
      "type": "Feature",
      "properties": {
        "norad_id": 31236,
        "name": "FENGYUN 1C DEB",
        "group": "fengyun-1c-debris",
        "lat": -16.394656163014414,
        "lon": -46.88100420650492,
        "alt_km": 761.9651636449926,
        "timestamp": "2025-12-22T04:03:39.450577+00:00",
        "meta_object_name": "FENGYUN 1C DEB",
        "meta_object_id": "1999-025BLS",
        "meta_epoch": "2025-12-17T14:59:05.453088",
        "meta_mean_motion": 13.85915823,
        "meta_eccentricity": 0.03148984,
        "meta_inclination": 98.5449,
        "meta_ra_of_asc_node": 306.4287,
        "meta_arg_of_pericenter": 33.45,
        "meta_mean_anomaly": 328.612,
        "meta_ephemeris_type": 0,
        "meta_classification_type": "U",
        "meta_norad_cat_id": 31236,
        "meta_element_set_no": 999,
        "meta_rev_at_epoch": 61092,
        "meta_bstar": 0.0042154512,
        "meta_mean_motion_dot": 7.112e-05,
        "meta_mean_motion_ddot": 0,
        "tle_line1": "1 31236U 99025BLS 25351.62436867  .00007112  00000+0  42155-2 0  9997",
        "tle_line2": "2 31236  98.5449 306.4287 0314898  33.4500 328.6120 13.85915823610929"
      },
      "geometry": {
        "type": "Point",
        "coordinates": [
          -46.88100420650492,
          -16.394656163014414
        ]
      }
    },
    {
      "type": "Feature",
      "properties": {
        "norad_id": 31237,
        "name": "FENGYUN 1C DEB",
        "group": "fengyun-1c-debris",
        "lat": 16.994750560413067,
        "lon": -7.823319783113422,
        "alt_km": 751.8640807937818,
        "timestamp": "2025-12-22T04:03:39.450587+00:00",
        "meta_object_name": "FENGYUN 1C DEB",
        "meta_object_id": "1999-025BLT",
        "meta_epoch": "2025-12-20T06:41:10.704768",
        "meta_mean_motion": 14.31411651,
        "meta_eccentricity": 0.00885751,
        "meta_inclination": 98.4534,
        "meta_ra_of_asc_node": 352.9414,
        "meta_arg_of_pericenter": 326.6082,
        "meta_mean_anomaly": 32.9534,
        "meta_ephemeris_type": 0,
        "meta_classification_type": "U",
        "meta_norad_cat_id": 31237,
        "meta_element_set_no": 999,
        "meta_rev_at_epoch": 97374,
        "meta_bstar": 0.00040991472,
        "meta_mean_motion_dot": 1.092e-05,
        "meta_mean_motion_ddot": 0,
        "tle_line1": "1 31237U 99025BLT 25354.27859612  .00001092  00000+0  40991-3 0  9997",
        "tle_line2": "2 31237  98.4534 352.9414 0088575 326.6082  32.9534 14.31411651973742"
      },
      "geometry": {
        "type": "Point",
        "coordinates": [
          -7.823319783113422,
          16.994750560413067
        ]
      }
    },
    {
      "type": "Feature",
      "properties": {
        "norad_id": 31239,
        "name": "FENGYUN 1C DEB",
        "group": "fengyun-1c-debris",
        "lat": -20.05706990601921,
        "lon": 167.6311142940193,
        "alt_km": 833.407749907522,
        "timestamp": "2025-12-22T04:03:39.450597+00:00",
        "meta_object_name": "FENGYUN 1C DEB",
        "meta_object_id": "1999-025BLV",
        "meta_epoch": "2025-12-20T10:58:17.527584",
        "meta_mean_motion": 14.0987113,
        "meta_eccentricity": 0.00496696,
        "meta_inclination": 98.7581,
        "meta_ra_of_asc_node": 349.1915,
        "meta_arg_of_pericenter": 176.084,
        "meta_mean_anomaly": 339.0502,
        "meta_ephemeris_type": 0,
        "meta_classification_type": "U",
        "meta_norad_cat_id": 31239,
        "meta_element_set_no": 999,
        "meta_rev_at_epoch": 96120,
        "meta_bstar": 0.00032343145,
        "meta_mean_motion_dot": 5.33e-06,
        "meta_mean_motion_ddot": 0,
        "tle_line1": "1 31239U 99025BLV 25354.45714731  .00000533  00000+0  32343-3 0  9992",
        "tle_line2": "2 31239  98.7581 349.1915 0049669 176.0840 339.0502 14.09871130961204"
      },
      "geometry": {
        "type": "Point",
        "coordinates": [
          167.6311142940193,
          -20.05706990601921
        ]
      }
    },
    {
      "type": "Feature",
      "properties": {
        "norad_id": 31241,
        "name": "FENGYUN 1C DEB",
        "group": "fengyun-1c-debris",
        "lat": 67.55052871221456,
        "lon": -13.106190104177418,
        "alt_km": 720.8192202026858,
        "timestamp": "2025-12-22T04:03:39.450607+00:00",
        "meta_object_name": "FENGYUN 1C DEB",
        "meta_object_id": "1999-025BLX",
        "meta_epoch": "2025-12-21T15:51:52.831296",
        "meta_mean_motion": 14.38728091,
        "meta_eccentricity": 0.0067133,
        "meta_inclination": 99.2357,
        "meta_ra_of_asc_node": 143.1563,
        "meta_arg_of_pericenter": 154.9209,
        "meta_mean_anomaly": 205.5262,
        "meta_ephemeris_type": 0,
        "meta_classification_type": "U",
        "meta_norad_cat_id": 31241,
        "meta_element_set_no": 999,
        "meta_rev_at_epoch": 97819,
        "meta_bstar": 0.0004798,
        "meta_mean_motion_dot": 1.461e-05,
        "meta_mean_motion_ddot": 0,
        "tle_line1": "1 31241U 99025BLX 25355.66102814  .00001461  00000+0  47980-3 0  9996",
        "tle_line2": "2 31241  99.2357 143.1563 0067133 154.9209 205.5262 14.38728091978190"
      },
      "geometry": {
        "type": "Point",
        "coordinates": [
          -13.106190104177418,
          67.55052871221456
        ]
      }
    },
    {
      "type": "Feature",
      "properties": {
        "norad_id": 31243,
        "name": "FENGYUN 1C DEB",
        "group": "fengyun-1c-debris",
        "lat": 44.070792436711365,
        "lon": 27.556419248771306,
        "alt_km": 870.9153827829105,
        "timestamp": "2025-12-22T04:03:39.450617+00:00",
        "meta_object_name": "FENGYUN 1C DEB",
        "meta_object_id": "1999-025BLZ",
        "meta_epoch": "2025-12-21T09:04:35.300640",
        "meta_mean_motion": 14.07191895,
        "meta_eccentricity": 0.00663867,
        "meta_inclination": 98.7493,
        "meta_ra_of_asc_node": 35.3646,
        "meta_arg_of_pericenter": 144.2117,
        "meta_mean_anomaly": 216.3528,
        "meta_ephemeris_type": 0,
        "meta_classification_type": "U",
        "meta_norad_cat_id": 31243,
        "meta_element_set_no": 999,
        "meta_rev_at_epoch": 69429,
        "meta_bstar": 0.00059613138,
        "meta_mean_motion_dot": 9.77e-06,
        "meta_mean_motion_ddot": 0,
        "tle_line1": "1 31243U 99025BLZ 25355.37818635  .00000977  00000+0  59613-3 0  9998",
        "tle_line2": "2 31243  98.7493  35.3646 0066386 144.2117 216.3528 14.07191895694293"
      },
      "geometry": {
        "type": "Point",
        "coordinates": [
          27.556419248771306,
          44.070792436711365
        ]
      }
    },
    {
      "type": "Feature",
      "properties": {
        "norad_id": 31244,
        "name": "FENGYUN 1C DEB",
        "group": "fengyun-1c-debris",
        "lat": 36.009943828059406,
        "lon": 53.128406838613095,
        "alt_km": 896.8057494169207,
        "timestamp": "2025-12-22T04:03:39.450629+00:00",
        "meta_object_name": "FENGYUN 1C DEB",
        "meta_object_id": "1999-025BMA",
        "meta_epoch": "2025-12-07T22:21:36.542016",
        "meta_mean_motion": 14.06237413,
        "meta_eccentricity": 0.01023168,
        "meta_inclination": 99.037,
        "meta_ra_of_asc_node": 45.5611,
        "meta_arg_of_pericenter": 188.335,
        "meta_mean_anomaly": 171.6122,
        "meta_ephemeris_type": 0,
        "meta_classification_type": "U",
        "meta_norad_cat_id": 31244,
        "meta_element_set_no": 999,
        "meta_rev_at_epoch": 57572,
        "meta_bstar": 0.00047777338,
        "meta_mean_motion_dot": 7.8e-06,
        "meta_mean_motion_ddot": 0,
        "tle_line1": "1 31244U 99025BMA 25341.93167294  .00000780  00000+0  47777-3 0  9994",
        "tle_line2": "2 31244  99.0370  45.5611 0102316 188.3350 171.6122 14.06237413575724"
      },
      "geometry": {
        "type": "Point",
        "coordinates": [
          53.128406838613095,
          36.009943828059406
        ]
      }
    }
  ]
}